STARLINK-30546
1 58003U 23153N   26092.83335647  .01453302  00000+0  13908-1 0  9997
2 58003  42.9995 288.1298 0001896 279.0157 254.3700 15.63049359  5910
